BEIDOU-2 IGSO-1 (C06)   
1 36828U 10036A   25146.00150264 -.00000036  00000+0  00000+0 0  9991
2 36828  54.2719 166.4610 0049632 217.6860 327.3378  1.00283416 54215
BEIDOU-2 G4 (C04)       
1 37210U 10057A   25147.54712071 -.00000111  00000+0  00000+0 0  9994
2 37210   2.6910  70.4662 0004695 192.6735 339.1806  1.00271622 53420
BEIDOU-2 IGSO-2 (C07)   
1 37256U 10068A   25145.82279123 -.00000231  00000+0  00000+0 0  9994
2 37256  48.2500 276.6251 0045914 212.1060 156.2414  1.00296625 52919
BEIDOU-2 IGSO-3 (C08)   
1 37384U 11013A   25145.74806604 -.00000215  00000+0  00000+0 0  9990
2 37384  61.8547  43.8223 0029918 177.9835  39.5214  1.00271378 51772
BEIDOU-2 IGSO-4 (C09)   
1 37763U 11038A   25145.73510065  .00000057  00000+0  00000+0 0  9993
2 37763  54.5746 169.1395 0143485 231.0963 202.4745  1.00282015 50763
BEIDOU-2 IGSO-5 (C10)   
1 37948U 11073A   25141.84836311 -.00000176  00000+0  00000+0 0  9993
2 37948  48.3935 276.3753 0104376 219.0943 142.9063  1.00254352 49489
BEIDOU-2 G5 (C05)       
1 38091U 12008A   25145.96341669  .00000062  00000+0  00000+0 0  9999
2 38091   2.6094  71.2671 0009671 266.3747 311.6979  1.00274583 48486
BEIDOU-2 M3 (C11)       
1 38250U 12018A   25144.43302267 -.00000066  00000+0  00000+0 0  9994
2 38250  56.0866 317.9458 0020502 269.4284  90.3291  1.86233519 89056
BEIDOU-2 M4 (C12)       
1 38251U 12018B   25144.90189870 -.00000069  00000+0  00000+0 0  9993
2 38251  55.9893 317.1753 0011423 272.0852  87.7734  1.86231922 88718
BEIDOU-2 M6 (C14)       
1 38775U 12050B   25145.14903501 -.00000046  00000+0  00000+0 0  9997
2 38775  56.2019  75.7597 0014323 345.4629  14.4684  1.86230908 86087
BEIDOU-2 G6 (C02)       
1 38953U 12059A   25145.98390999 -.00000168  00000+0  00000+0 0  9992
2 38953   3.4377  77.5349 0009861 316.5334 287.9208  1.00268245 46024
BEIDOU-3S IGSO-1S (C31) 
1 40549U 15019A   25145.73547653 -.00000200  00000+0  00000+0 0  9996
2 40549  49.9310 300.1180 0039322 191.4137 111.4025  1.00282488 37184
BEIDOU-3S M2S (C58)     
1 40748U 15037A   25144.03095715 -.00000064  00000+0  00000+0 0  9994
2 40748  55.2122 315.4105 0008094 256.7541 103.1466  1.86229024 66874
BEIDOU-3S M1S (C57)     
1 40749U 15037B   25145.36171032 -.00000073  00000+0  00000+0 0  9999
2 40749  55.2077 315.3570 0003643  26.1744 333.8293  1.86253702 66902
BEIDOU-3S IGSO-2S (C56) 
1 40938U 15053A   25145.81522968 -.00000170  00000+0  00000+0 0  9993
2 40938  49.8225 263.3812 0059268 187.6265 182.2822  1.00271951 35476
BEIDOU-2 IGSO-6 (C13)   
1 41434U 16021A   25145.80641598 -.00000180  00000+0  00000+0 0  9992
2 41434  59.6795  41.9046 0053829 229.8207 355.8705  1.00290604 33595
BEIDOU-2 G7 (C03)       
1 41586U 16037A   25145.80583990 -.00000346  00000+0  00000+0 0  9992
2 41586   1.7108  68.6619 0009548 341.9253 233.6332  1.00266650  3003
BEIDOU-3 M1 (C19)       
1 43001U 17069A   25145.98862402 -.00000050  00000+0  00000+0 0  9991
2 43001  56.3517  75.8727 0011384 315.9034  43.9784  1.86231070 51396
BEIDOU-3 M2 (C20)       
1 43002U 17069B   25145.38959574 -.00000047  00000+0  00000+0 0  9999
2 43002  56.3503  75.9285 0009624 338.2074  21.7239  1.86230749 51377
BEIDOU-3 M7 (C27)       
1 43107U 18003A   25144.06150421 -.00000066  00000+0  00000+0 0  9993
2 43107  54.6709 315.8504 0004874  81.1146 278.9323  1.86232416 50101
BEIDOU-3 M8 (C28)       
1 43108U 18003B   25144.00473770 -.00000065  00000+0  00000+0 0  9992
2 43108  54.6638 315.8361 0002442 264.3301  95.6337  1.86230837 50116
BEIDOU-3 M4 (C22)       
1 43207U 18018A   25145.51985399 -.00000048  00000+0  00000+0 0  9991
2 43207  56.3099  75.9655 0007605   2.4370 357.5388  1.86230994 49522
BEIDOU-3 M3 (C21)       
1 43208U 18018B   25145.58638822 -.00000048  00000+0  00000+0 0  9995
2 43208  56.3095  75.9676 0009408 328.6237  31.2924  1.86230922 49523
BEIDOU-3 M9 (C29)       
1 43245U 18029A   25145.26744857 -.00000073  00000+0  00000+0 0  9997
2 43245  54.5431 313.4824 0000545 127.0818 232.9065  1.86232415 48672
BEIDOU-3 M10 (C30)      
1 43246U 18029B   25144.66274189 -.00000070  00000+0  00000+0 0  9994
2 43246  54.5410 313.5308 0004126  29.4171 330.5921  1.86228989 48648
BEIDOU-2 IGSO-7 (C16)   
1 43539U 18057A   25145.46767117 -.00000038  00000+0  00000+0 0  9991
2 43539  55.1623 166.4159 0089404 236.4759 121.5673  1.00263452 25231
BEIDOU-3 M5 (C23)       
1 43581U 18062A   25144.35112762  .00000089  00000+0  00000+0 0  9996
2 43581  54.1000 195.5244 0004960 278.9247  81.1086  1.86228487 46393
BEIDOU-3 M6 (C24)       
1 43582U 18062B   25145.82617028  .00000088  00000+0  00000+0 0  9994
2 43582  54.0996 195.4634 0004295   8.4544 351.6458  1.86229305 46428
BEIDOU-3 M12 (C26)      
1 43602U 18067A   25145.22482187  .00000092  00000+0  00000+0 0  9997
2 43602  54.1927 194.1965 0007149  25.7065 334.4211  1.86227775 45895
BEIDOU-3 M11 (C25)      
1 43603U 18067B   25144.82184563  .00000093  00000+0  00000+0 0  9991
2 43603  54.1900 194.1745 0003964   9.6338 350.4649  1.86227246 45917
BEIDOU-3 M13 (C32)      
1 43622U 18072A   25143.16967923 -.00000028  00000+0  00000+0 0  9992
2 43622  56.2804  75.5650 0008044 316.6929  43.2222  1.86231285 45396
BEIDOU-3 M14 (C33)      
1 43623U 18072B   25145.18296742 -.00000047  00000+0  00000+0 0  9992
2 43623  56.2840  75.4918 0006367 343.3090  16.6430  1.86231277 45425
BEIDOU-3 M16 (C35)      
1 43647U 18078A   25145.34304548 -.00000074  00000+0  00000+0 0  9996
2 43647  54.4393 313.5499 0007435  31.7768 328.2511  1.86232197 44930
BEIDOU-3 M15 (C34)      
1 43648U 18078B   25144.39840090 -.00000068  00000+0  00000+0 0  9991
2 43648  54.4360 313.5845 0004546  46.3802 313.6447  1.86232180 44939
BEIDOU-3 G1 (C59)       
1 43683U 18085A   25145.93276817 -.00000270  00000+0  00000+0 0  9994
2 43683   2.6149 109.2406 0004096 347.8137 262.5367  1.00270453 24179
BEIDOU-3 M17 (C36)      
1 43706U 18093A   25145.62755084  .00000089  00000+0  00000+0 0  9990
2 43706  54.1832 195.4445 0009731 284.1498  75.8348  1.86228201 44321
BEIDOU-3 M18 (C37)      
1 43707U 18093B   25143.87927620  .00000087  00000+0  00000+0 0  9991
2 43707  54.1840 195.4957 0007516 311.9566  48.0671  1.86229657 44285
BEIDOU-3 IGSO-1 (C38)   
1 44204U 19023A   25145.74243155 -.00000243  00000+0  00000+0 0  9995
2 44204  58.1449  41.6524 0020256 224.2610   1.0801  1.00251834  3323
BEIDOU-2 G8 (C01)       
1 44231U 19027A   25145.74905912 -.00000240  00000+0  00000+0 0  9992
2 44231   1.6355  75.0386 0004519 255.3272 327.4782  1.00271142 22195
BEIDOU-3 IGSO-2 (C39)   
1 44337U 19035A   25145.69259352 -.00000044  00000+0  00000+0 0  9994
2 44337  55.2065 162.2644 0035944 210.4998 239.9959  1.00277780 21785
BEIDOU-3 M24 (C46)      
1 44542U 19061A   25145.56102669  .00000090  00000+0  00000+0 0  9995
2 44542  54.4109 195.8009 0007697 352.6309   7.4506  1.86229009 38575
BEIDOU-3 M23 (C45)      
1 44543U 19061B   25146.00143101  .00000087  00000+0  00000+0 0  9998
2 44543  54.4093 195.7547 0005060 331.2140 236.8646  1.86229080 38585
BEIDOU-3 IGSO-3 (C40)   
1 44709U 19073A   25144.79215881 -.00000225  00000+0  00000+0 0  9999
2 44709  55.4678 285.0860 0044576 182.7399 177.1496  1.00252263 20564
BEIDOU-3 M22 (C44)      
1 44793U 19078A   25144.32951071 -.00000068  00000+0  00000+0 0  9999
2 44793  54.2873 313.4754 0006517  39.9885 320.0469  1.86232038 37407
BEIDOU-3 M21 (C43)      
1 44794U 19078B   25144.46244941 -.00000069  00000+0  00000+0 0  9997
2 44794  54.2604 313.4398 0004497  38.4480 321.5707  1.86227644 37413
BEIDOU-3 M19 (C41)      
1 44864U 19090A   25145.00084831 -.00000045  00000+0  00000+0 0  9994
2 44864  56.2161  75.6565 0018700 291.6586 263.0621  1.86231384 37002
BEIDOU-3 M20 (C42)      
1 44865U 19090B   25145.85120381 -.00000050  00000+0  00000+0 0  9995
2 44865  56.2186  75.6622 0016582 304.9052 189.5933  1.86231278 37006
BEIDOU-3 G2 (C60)       
1 45344U 20017A   25145.98119512 -.00000136  00000+0  00000+0 0  9992
2 45344   2.8353  39.9924 0002072   5.0337 272.0325  1.00270226 19379
BEIDOU-3 G3 (C61)       
1 45807U 20040A   25145.80583991 -.00000347  00000+0  00000+0 0  9993
2 45807   1.5100  63.5486 0001959 313.6617 267.0916  1.00270651 18187
BEIDOU-3 G4 (C62)       
1 56564U 23066A   25147.54712071 -.00000108  00000+0  00000+0 0  9997
2 56564   1.2727 292.1057 0005863 181.3616 128.8848  1.00271534  7527
BEIDOU-3 M28 (C50)      
1 58654U 23207A   25145.61622839 -.00000050  00000+0  00000+0 0  9990
2 58654  55.4051  75.4143 0003863 322.5074  37.4384  1.86229800  9629
BEIDOU-3 M26 (C48)      
1 58655U 23207B   25145.41564713 -.00000049  00000+0  00000+0 0  9993
2 58655  55.4069  75.4071 0004082 299.8069  60.1253  1.86231500  9609
BEIDOU-3 M25 (C47)      
1 61186U 24168B   25144.63934981 -.00000069  00000+0  00000+0 0  9996
2 61186  54.8156 315.7117 0003303 299.4543  17.8662  1.86229813  4546
BEIDOU-3 M27 (C49)      
1 61187U 24168C   25145.24547730 -.00000073  00000+0  00000+0 0  9992
2 61187  54.8105 315.6751 0001899  33.9775 104.6006  1.86229888  4583
